TUBIN                   
1 48900U 21059X   24267.20229608  .00030978  00000+0  89953-3 0  9991
2 48900  97.6584  55.0975 0006251 103.9768 256.2171 15.35422760179939
MANDRAKE 2 ABLE         
1 48907U 21059AE  24266.64613126  .00015039  00000+0  54494-3 0  9990
2 48907  97.6614  51.8319 0008429 113.4167 246.7959 15.28443485179672
MANDRAKE 2 BAKER        
1 48908U 21059AF  24267.16722680  .00018847  00000+0  66378-3 0  9999
2 48908  97.6627  53.0122 0007798 100.7570 259.4548 15.29328851179785
PACE-1                  
1 48909U 21059AG  24266.40204529  .00019981  00000+0  66323-3 0  9993
2 48909  97.6526  51.7227 0007629  99.9835 260.2267 15.31243073179728
YAM-2                   
1 48911U 21059AJ  24267.15813097  .00034061  00000+0  87286-3 0  9992
2 48911  97.6591  57.9673 0006272  91.8945 268.3018 15.39283710180097
ION SCV-003             
1 48912U 21059AK  24266.92595491  .00105831  00000+0  12702-2 0  9996
2 48912  97.6253  62.2122 0002255  68.7389 291.4108 15.60543603180566
YAM-3                   
1 48915U 21059AN  24267.15910590  .00015591  00000+0  56851-3 0  9993
2 48915  97.6586  52.4229 0009057  96.5110 263.7160 15.28222561179777
FARADAY_PHOENIX         
1 48924U 21059AX  24266.81899832  .00016963  00000+0  57543-3 0  9993
2 48924  97.6610  54.8699 0013340  92.6088 267.6680 15.30517596179861
PAINANI-2               
1 48928U 21059BB  24266.70600497  .00182391  00000+0  13301-2 0  9994
2 48928  97.6409  67.9380 0001389 352.8854   7.2389 15.72733637180706
DEMO8 (TENZING)         
1 48951U 21059CA  24266.95247185  .00015944  00000+0  55901-3 0  9990
2 48951  97.6666  54.9611 0012655 103.6631 256.6019 15.29465791179863
ASTROCAST-0201          
1 48954U 21059CD  24266.94403422  .00023121  00000+0  70045-3 0  9992
2 48954  97.6421  55.9861 0010095 103.3344 256.9025 15.34113304180023
ASTROCAST-0203          
1 48955U 21059CE  24266.96630967  .00036023  00000+0  10826-2 0  9996
2 48955  97.6408  55.5401 0010819  96.8315 263.4158 15.34266283180028
ASTROCAST-0205          
1 48960U 21059CK  24266.39924865  .00024369  00000+0  73641-3 0  9997
2 48960  97.6403  55.2817 0010401  77.8718 282.3689 15.34179131179943
NAPA-2                  
1 48963U 21059CN  24267.15600923  .00020258  00000+0  69272-3 0  9999
2 48963  97.6549  51.7035 0009810  97.7217 262.5137 15.30257390179743
W-CUBE                  
1 48965U 21059CQ  24266.95165665  .00032391  00000+0  89389-3 0  9999
2 48965  97.6570  55.2769 0007178  87.3448 272.8617 15.36999249179916
JILIN-1 GAOFEN 3D01     
1 49004U 21061B   24267.20807290  .00034637  00000+0  99027-3 0  9998
2 49004  97.3852 331.7867 0009176 151.9090 208.2651 15.35862352178624
JILIN-1 GAOFEN 3D03     
1 49006U 21061D   24267.15492175  .00020225  00000+0  81129-3 0  9998
2 49006  97.3837 327.5195 0009268 202.8802 157.2025 15.24988596178349
XINGSHIDAI 10           
1 49007U 21061E   24267.19344883  .00022506  00000+0  89084-3 0  9997
2 49007  97.3835 327.5467 0010618 190.4281 169.6739 15.25399241178347
FENGYUN 3E              
1 49008U 21062A   24267.23517306  .00000105  00000+0  70139-4 0  9999
2 49008  98.7380 267.2215 0002685 100.9785 259.1693 14.19788937166908
ISS (NAUKA)             
1 49044U 21066A   24266.83081171  .00021630  00000+0  39280-3 0  9991
2 49044  51.6368 191.7383 0007361  21.3372 338.7922 15.49475246178781
BRO-4                   
1 49066U 21073A   24267.20019932  .00057850  00000+0  13003-2 0  9998
2 49066  97.4386 344.3713 0014454 259.5469 100.4149 15.43036746171813
LEDSAT                  
1 49069U 21073D   24267.14331487  .00028527  00000+0  96790-3 0  9990
2 49069  97.4270 337.9044 0015971 296.0105  63.9490 15.30359719171402
STARLINK-3100           
1 49144U 21082Q   24266.95688325  .00001128  00000+0  10234-3 0  9995
2 49144  70.0007 197.6523 0002923 269.0309  91.0515 14.98330136166187
CUTE                    
1 49263U 21088D   24267.14160902  .00033194  00000+0  12952-2 0  9997
2 49263  97.4856 332.7971 0013791 102.6412 257.6369 15.25761024164545
2021-091B               
1 49316U 21091B   24267.18304416  .00007934  00000+0  38618-3 0  9995
2 49316  97.4562  93.2707 0002928  84.0664 276.0903 15.18643932163082
2021-091H               
1 49322U 21091H   24267.15871372  .00040880  00000+0  83949-3 0  9993
2 49322  97.4336 105.1362 0010083  82.6463 277.5931 15.45848358163907
SDGSAT 1                
1 49387U 21100A   24267.15784125  .00007746  00000+0  36370-3 0  9994
2 49387  97.3561 323.1270 0001583 115.0875 245.0524 15.19897387159933
ASTERISC                
1 49395U 21102A   24266.88882964  .00059186  00000+0  16835-2 0  9992
2 49395  97.4196 318.2633 0008985 223.2177 136.8363 15.35894134158229
TEIKYOSAT-4 (OORURI)    
1 49396U 21102B   24266.86399896  .00004139  00000+0  29345-3 0  9997
2 49396  97.4504 308.4666 0011799 306.4223  53.5915 15.05253308157443
Z-SAT                   
1 49399U 21102E   24267.14066506  .00007072  00000+0  43766-3 0  9993
2 49399  97.4210 310.5580 0018114 281.5008  78.4188 15.09974411157763
HIBARI                  
1 49400U 21102F   24266.86903369  .00011972  00000+0  64750-3 0  9991
2 49400  97.4192 312.5976 0015036 265.0231  94.9284 15.14717766157899
KOSEN-1                 
1 49402U 21102H   24266.90044230  .00008846  00000+0  49390-3 0  9990
2 49402  97.4128 312.1524 0016456 261.9487  97.9878 15.13646562157919
GLOBAL-14               
1 49469U 21106A   24266.66116450  .00032109  00000+0  81075-3 0  9999
2 49469  42.0112  24.6749 0008305 315.5569  44.4604 15.39164557160663
GAOFEN-3 02             
1 49495U 21109A   24267.22295088  .00000256  00000+0  90843-4 0  9991
2 49495  98.4155 273.1794 0003385  93.5101 266.6476 14.42206999149227
GLOBAL-12               
1 49772U 21115BA  24266.94434257  .00030015  00000+0  78739-3 0  9992
2 49772  53.2028 150.2986 0004390 161.6441 198.4723 15.38423357158370
GLOBAL-13               
1 49773U 21115BB  24266.39772884  .00028738  00000+0  75220-3 0  9994
2 49773  53.2034 154.1117 0004107 150.9200 209.2035 15.38516700158278
GLOBAL-17               
1 49949U 21120A   24267.06773711  .00035045  00000+0  89406-3 0  9990
2 49949  42.0015 149.1694 0004892 266.1849  93.8431 15.38836692157408
GLOBAL-16               
1 49950U 21120B   24266.97232344  .00031009  00000+0  79627-3 0  9993
2 49950  42.0016 149.2999 0003503 266.4383  93.6056 15.38690436157386
XW-3 (CAS-9)            
1 50466U 21131B   24267.18242612  .00001556  00000+0  50827-3 0  9997
2 50466  98.5246 351.7954 0004243 179.7643 180.3548 14.39979891144100
UMBRA-02                
1 50986U 22002C   24267.14009924  .00139774  00000+0  23365-2 0  9995
2 50986  97.3734 332.4124 0006813 227.4635 132.6042 15.51387765149313
ION SCV-004             
1 50993U 22002K   24266.12872282  .00008040  00000+0  36886-3 0  9999
2 50993  97.3773 324.9202 0010633  76.9151 283.3271 15.20638871148749
IRIS-A                  
1 51044U 22002BN  24267.13824191  .00036196  00000+0  95796-3 0  9993
2 51044  97.3727 333.6472 0005236  59.6358 300.5404 15.38281987149441
KEPLER-19               
1 51051U 22002BV  24267.14153758  .00027720  00000+0  83844-3 0  9990
2 51051  97.3778 331.6519 0007254  85.0101 275.1970 15.34148134149285
ETV-A1                  
1 51060U 22002CE  24267.12366174  .00011997  00000+0  50037-3 0  9993
2 51060  97.3793 328.1036 0009051  84.9763 275.2507 15.23793988149026
BRO-5                   
1 51061U 22002CF  24267.13873379  .00011851  00000+0  43392-3 0  9990
2 51061  97.3841 330.3534 0009206  83.6424 276.5864 15.28140953149147
VZLUSAT-2               
1 51085U 22002DF  24267.13406225  .00027064  00000+0  85821-3 0  9994
2 51085  97.3760 331.1065 0009942  70.7471 289.4846 15.32624603149245
L-SAR 01A               
1 51284U 22007A   24267.18113584  .00002129  00000+0  23541-3 0  9994
2 51284  97.8126 272.6719 0001591  90.8237 269.3162 14.88425026144462
INSPIRESAT-1            
1 51657U 22013B   24266.98576614  .00017892  00000+0  61192-3 0  9996
2 51657  97.5225 284.7793 0008446 166.8611 193.2851 15.30288043144492
INS-2TD                 
1 51658U 22013C   24266.82596613  .00170986  00000+0  16610-2 0  9999
2 51658  97.5050 294.7135 0007133 144.3218 215.8519 15.65742308145159
L-SAR 01B               
1 51822U 22018A   24267.21463303  .00002077  00000+0  22999-3 0  9993
2 51822  97.8131 272.6760 0001384  88.0582 272.0794 14.88396797139709
2022-019D               
1 51827U 22019D   24267.15404757  .00019611  00000+0  76894-3 0  9995
2 51827  97.4245 338.1057 0011544 249.0471 110.9532 15.25735271142168
JILIN-1 GAOFEN 03D14    
1 51831U 22019H   24267.16725806  .00022620  00000+0  92961-3 0  9999
2 51831  97.4266 340.4920 0011920 237.1973 122.8116 15.24124224142321
2022-019J               
1 51832U 22019J   24267.16844948  .00004591  00000+0  24475-3 0  9991
2 51832  97.4237 333.9273 0007868 274.0786  85.9547 15.15644542141894
JILIN-1 GAOFEN 03D16    
1 51834U 22019L   24267.18387104  .00021864  00000+0  87014-3 0  9991
2 51834  97.4241 340.6414 0007261 247.0804 112.9667 15.25252910142330
JILIN-1 GAOFEN 03D11    
1 51835U 22019M   24267.19741085  .00021845  00000+0  88123-3 0  9996
2 51835  97.4274 340.6585 0009885 234.9808 125.0503 15.24778231142331
JILIN-1 GAOFEN 03D17    
1 51838U 22019Q   24267.19800844  .00033765  00000+0  10382-2 0  9993
2 51838  97.4247 341.9181 0008861 241.1065 118.9289 15.33573308142428
JILIN-1 GAOFEN 03D15    
1 51839U 22019R   24267.17181763  .00022187  00000+0  90700-3 0  9993
2 51839  97.4248 340.4495 0004658 243.6544 116.4215 15.24361815142331
JILIN-1 GAOFEN 03D10    
1 51840U 22019S   24267.18656638  .00025010  00000+0  98295-3 0  9999
2 51840  97.4249 340.7297 0005514 201.1262 158.9749 15.25653489142341
JILIN-1 GAOFEN 03D12    
1 51841U 22019T   24267.17852600  .00021588  00000+0  88360-3 0  9994
2 51841  97.4234 340.4621 0007450 219.7291 140.3401 15.24310489142330
